[{"OBJECT_NAME":"STARLINK-5002","OBJECT_ID":"2022-119AN","EPOCH":"2026-03-09T22:09:08.576352","MEAN_MOTION":15.08857317,"ECCENTRICITY":0.00010895,"INCLINATION":53.2182,"RA_OF_ASC_NODE":312.8242,"ARG_OF_PERICENTER":73.3966,"MEAN_ANOMALY":286.7145,"EPHEMERIS_TYPE":0,"CLASSIFICATION_TYPE":"U","NORAD_CAT_ID":53922,"ELEMENT_SET_NO":999,"REV_AT_EPOCH":19186,"BSTAR":0.00014109006,"MEAN_MOTION_DOT":1.959e-5,"MEAN_MOTION_DDOT":0},{"OBJECT_NAME":"LEMUR-2-ESPERANZA","OBJECT_ID":"2025-061B","EPOCH":"2026-03-09T20:59:51.017856","MEAN_MOTION":15.12770808,"ECCENTRICITY":0.00169494,"INCLINATION":97.5568,"RA_OF_ASC_NODE":45.1407,"ARG_OF_PERICENTER":244.877,"MEAN_ANOMALY":115.0702,"EPHEMERIS_TYPE":0,"CLASSIFICATION_TYPE":"U","NORAD_CAT_ID":63352,"ELEMENT_SET_NO":999,"REV_AT_EPOCH":5257,"BSTAR":0.00034972806,"MEAN_MOTION_DOT":6.09e-5,"MEAN_MOTION_DDOT":0}]
